EUTELSAT 7A             
1 28187U 04008A   25299.47038810  .00000116  00000+0  00000+0 0  9992
2 28187   5.2335  74.7860 0000752 127.0661 223.3893  1.00271425 79003
EUTELSAT 174A           
1 28924U 05052A   25299.44419659  .00000023  00000+0  00000+0 0  9999
2 28924   3.6234  79.4100 0006137 134.5269 155.1054  1.00270033 49980
EUTELSAT HOTBIRD 13B    
1 29270U 06032A   25299.48074987  .00000168  00000+0  00000+0 0  9998
2 29270   1.0530  84.7713 0003930 123.3156  33.2199  1.00274701 44969
EUTELSAT HOTBIRD 13C    
1 33459U 08065A   25299.40035683 -.00000087  00000+0  00000+0 0  9993
2 33459   2.3450  81.9431 0005958 151.7873 292.9621  1.00272210 45000
EUTELSAT 36B            
1 36101U 09065A   25299.48421656  .00000124  00000+0  00000+0 0  9999
2 36101   0.0502   8.0118 0005929 208.3303  43.6075  1.00270564 58364
EUTELSAT KA-SAT 9A      
1 37258U 10069A   25299.31641683  .00000075  00000+0  00000+0 0  9990
2 37258   0.0582 319.7777 0002473 219.9020 338.2156  1.00274802 41661
EUTELSAT 7 WEST A       
1 37816U 11051A   25299.40113683 -.00000048  00000+0  00000+0 0  9997
2 37816   0.0965  48.3840 0006291 159.2627 324.5193  1.00272574 51544
EUTELSAT 16A            
1 37836U 11057A   25299.33457648  .00000116  00000+0  00000+0 0  9994
2 37836   0.0655   5.3152 0005607 213.3721 312.7398  1.00270308  4983
